CCSDS_OMM_VERS = 2.0
CREATION_DATE  = 
ORIGINATOR     = 

OBJECT_NAME    = SL-16 R/B
OBJECT_ID      = 1998-043G
CENTER_NAME    = EARTH
REF_FRAME      = TEME
TIME_SYSTEM    = UTC
MEAN_ELEMENT_THEORY = SGP/SGP4

EPOCH          = 2026-02-04T21:28:52.024512
MEAN_MOTION    = 14.26041654
ECCENTRICITY   = .00108661
INCLINATION    = 98.8200
RA_OF_ASC_NODE = 349.0376
ARG_OF_PERICENTER = 107.6539
MEAN_ANOMALY   = 252.5828

EPHEMERIS_TYPE = 0
CLASSIFICATION_TYPE = U
NORAD_CAT_ID   = 25400
ELEMENT_SET_NO = 999
REV_AT_EPOCH   = 43431
BSTAR          = .60084449E-4
MEAN_MOTION_DOT = .98E-6
MEAN_MOTION_DDOT = 0

CCSDS_OMM_VERS = 2.0
CREATION_DATE  = 
ORIGINATOR     = 

OBJECT_NAME    = SL-16 R/B
OBJECT_ID      = 1998-045B
CENTER_NAME    = EARTH
REF_FRAME      = TEME
TIME_SYSTEM    = UTC
MEAN_ELEMENT_THEORY = SGP/SGP4

EPOCH          = 2026-02-05T07:03:06.623424
MEAN_MOTION    = 14.16185376
ECCENTRICITY   = .00052336
INCLINATION    = 71.0087
RA_OF_ASC_NODE = 249.7020
ARG_OF_PERICENTER = 68.6719
MEAN_ANOMALY   = 291.4963

EPHEMERIS_TYPE = 0
CLASSIFICATION_TYPE = U
NORAD_CAT_ID   = 25407
ELEMENT_SET_NO = 999
REV_AT_EPOCH   = 42251
BSTAR          = -.74096154E-4
MEAN_MOTION_DOT = -.194E-5
MEAN_MOTION_DDOT = 0

CCSDS_OMM_VERS = 2.0
CREATION_DATE  = 
ORIGINATOR     = 

OBJECT_NAME    = ISS (ZARYA)
OBJECT_ID      = 1998-067A
CENTER_NAME    = EARTH
REF_FRAME      = TEME
TIME_SYSTEM    = UTC
MEAN_ELEMENT_THEORY = SGP/SGP4

EPOCH          = 2026-02-05T01:12:31.364064
MEAN_MOTION    = 15.48402345
ECCENTRICITY   = .00111254
INCLINATION    = 51.6315
RA_OF_ASC_NODE = 233.7051
ARG_OF_PERICENTER = 65.7526
MEAN_ANOMALY   = 294.4623

EPHEMERIS_TYPE = 0
CLASSIFICATION_TYPE = U
NORAD_CAT_ID   = 25544
ELEMENT_SET_NO = 999
REV_AT_EPOCH   = 55127
BSTAR          = .21868475E-3
MEAN_MOTION_DOT = .11388E-3
MEAN_MOTION_DDOT = 0

CCSDS_OMM_VERS = 2.0
CREATION_DATE  = 
ORIGINATOR     = 

OBJECT_NAME    = CZ-4B R/B
OBJECT_ID      = 1999-025C
CENTER_NAME    = EARTH
REF_FRAME      = TEME
TIME_SYSTEM    = UTC
MEAN_ELEMENT_THEORY = SGP/SGP4

EPOCH          = 2026-02-05T01:34:59.745792
MEAN_MOTION    = 14.18258696
ECCENTRICITY   = .00381768
INCLINATION    = 98.6689
RA_OF_ASC_NODE = 81.1107
ARG_OF_PERICENTER = 79.2514
MEAN_ANOMALY   = 311.0915

EPHEMERIS_TYPE = 0
CLASSIFICATION_TYPE = U
NORAD_CAT_ID   = 25732
ELEMENT_SET_NO = 999
REV_AT_EPOCH   = 38354
BSTAR          = .52510388E-4
MEAN_MOTION_DOT = .66E-6
MEAN_MOTION_DDOT = 0

CCSDS_OMM_VERS = 2.0
CREATION_DATE  = 
ORIGINATOR     = 

OBJECT_NAME    = OKEAN-O
OBJECT_ID      = 1999-039A
CENTER_NAME    = EARTH
REF_FRAME      = TEME
TIME_SYSTEM    = UTC
MEAN_ELEMENT_THEORY = SGP/SGP4

EPOCH          = 2026-02-05T03:20:05.425152
MEAN_MOTION    = 14.80280386
ECCENTRICITY   = .00019267
INCLINATION    = 97.9512
RA_OF_ASC_NODE = 96.3497
ARG_OF_PERICENTER = 89.2996
MEAN_ANOMALY   = 270.8437

EPHEMERIS_TYPE = 0
CLASSIFICATION_TYPE = U
NORAD_CAT_ID   = 25860
ELEMENT_SET_NO = 999
REV_AT_EPOCH   = 42957
BSTAR          = .12405358E-3
MEAN_MOTION_DOT = .892E-5
MEAN_MOTION_DDOT = 0

CCSDS_OMM_VERS = 2.0
CREATION_DATE  = 
ORIGINATOR     = 

OBJECT_NAME    = SL-16 R/B
OBJECT_ID      = 1999-039B
CENTER_NAME    = EARTH
REF_FRAME      = TEME
TIME_SYSTEM    = UTC
MEAN_ELEMENT_THEORY = SGP/SGP4

EPOCH          = 2026-02-05T03:35:25.409760
MEAN_MOTION    = 14.81684382
ECCENTRICITY   = .00149189
INCLINATION    = 98.0034
RA_OF_ASC_NODE = 95.2827
ARG_OF_PERICENTER = 8.4597
MEAN_ANOMALY   = 351.6864

EPHEMERIS_TYPE = 0
CLASSIFICATION_TYPE = U
NORAD_CAT_ID   = 25861
ELEMENT_SET_NO = 999
REV_AT_EPOCH   = 43204
BSTAR          = .10460996E-3
MEAN_MOTION_DOT = .771E-5
MEAN_MOTION_DDOT = 0

CCSDS_OMM_VERS = 2.0
CREATION_DATE  = 
ORIGINATOR     = 

OBJECT_NAME    = DELTA 2 R/B
OBJECT_ID      = 1999-041E
CENTER_NAME    = EARTH
REF_FRAME      = TEME
TIME_SYSTEM    = UTC
MEAN_ELEMENT_THEORY = SGP/SGP4

EPOCH          = 2026-02-05T03:50:09.745728
MEAN_MOTION    = 14.11702591
ECCENTRICITY   = .05024339
INCLINATION    = 51.7645
RA_OF_ASC_NODE = 71.1819
ARG_OF_PERICENTER = 252.3214
MEAN_ANOMALY   = 102.2274

EPHEMERIS_TYPE = 0
CLASSIFICATION_TYPE = U
NORAD_CAT_ID   = 25876
ELEMENT_SET_NO = 999
REV_AT_EPOCH   = 35843
BSTAR          = .46029408E-3
MEAN_MOTION_DOT = .263E-4
MEAN_MOTION_DDOT = 0

CCSDS_OMM_VERS = 2.0
CREATION_DATE  = 
ORIGINATOR     = 

OBJECT_NAME    = HELIOS 1B
OBJECT_ID      = 1999-064A
CENTER_NAME    = EARTH
REF_FRAME      = TEME
TIME_SYSTEM    = UTC
MEAN_ELEMENT_THEORY = SGP/SGP4

EPOCH          = 2026-02-05T05:25:49.794528
MEAN_MOTION    = 14.87561947
ECCENTRICITY   = .00019034
INCLINATION    = 98.1728
RA_OF_ASC_NODE = 297.5111
ARG_OF_PERICENTER = 120.7216
MEAN_ANOMALY   = 239.4187

EPHEMERIS_TYPE = 0
CLASSIFICATION_TYPE = U
NORAD_CAT_ID   = 25977
ELEMENT_SET_NO = 999
REV_AT_EPOCH   = 68043
BSTAR          = .29654275E-3
MEAN_MOTION_DOT = .2634E-4
MEAN_MOTION_DDOT = 0

CCSDS_OMM_VERS = 2.0
CREATION_DATE  = 
ORIGINATOR     = 

OBJECT_NAME    = TERRA
OBJECT_ID      = 1999-068A
CENTER_NAME    = EARTH
REF_FRAME      = TEME
TIME_SYSTEM    = UTC
MEAN_ELEMENT_THEORY = SGP/SGP4

EPOCH          = 2026-02-05T06:07:03.084384
MEAN_MOTION    = 14.60978909
ECCENTRICITY   = .0000984
INCLINATION    = 97.9661
RA_OF_ASC_NODE = 90.9173
ARG_OF_PERICENTER = 297.8745
MEAN_ANOMALY   = 137.2796

EPHEMERIS_TYPE = 0
CLASSIFICATION_TYPE = U
NORAD_CAT_ID   = 25994
ELEMENT_SET_NO = 999
REV_AT_EPOCH   = 39034
BSTAR          = .14358187E-3
MEAN_MOTION_DOT = .659E-5
MEAN_MOTION_DDOT = 0

CCSDS_OMM_VERS = 2.0
CREATION_DATE  = 
ORIGINATOR     = 

OBJECT_NAME    = SL-16 R/B
OBJECT_ID      = 2000-006B
CENTER_NAME    = EARTH
REF_FRAME      = TEME
TIME_SYSTEM    = UTC
MEAN_ELEMENT_THEORY = SGP/SGP4

EPOCH          = 2026-02-05T07:13:09.698880
MEAN_MOTION    = 14.15820585
ECCENTRICITY   = .00184526
INCLINATION    = 71.0027
RA_OF_ASC_NODE = 165.9377
ARG_OF_PERICENTER = 235.5867
MEAN_ANOMALY   = 124.3513

EPHEMERIS_TYPE = 0
CLASSIFICATION_TYPE = U
NORAD_CAT_ID   = 26070
ELEMENT_SET_NO = 999
REV_AT_EPOCH   = 34397
BSTAR          = .55677419E-4
MEAN_MOTION_DOT = .62E-6
MEAN_MOTION_DDOT = 0

CCSDS_OMM_VERS = 2.0
CREATION_DATE  = 
ORIGINATOR     = 

OBJECT_NAME    = TITAN 4B R/B
OBJECT_ID      = 2000-047B
CENTER_NAME    = EARTH
REF_FRAME      = TEME
TIME_SYSTEM    = UTC
MEAN_ELEMENT_THEORY = SGP/SGP4

EPOCH          = 2026-02-05T05:26:46.675104
MEAN_MOTION    = 15.09290425
ECCENTRICITY   = .00368912
INCLINATION    = 67.9896
RA_OF_ASC_NODE = 131.7755
ARG_OF_PERICENTER = 75.4960
MEAN_ANOMALY   = 285.0278

EPHEMERIS_TYPE = 0
CLASSIFICATION_TYPE = U
NORAD_CAT_ID   = 26474
ELEMENT_SET_NO = 999
REV_AT_EPOCH   = 38801
BSTAR          = .3375277E-3
MEAN_MOTION_DOT = .5345E-4
MEAN_MOTION_DDOT = 0

CCSDS_OMM_VERS = 2.0
CREATION_DATE  = 
ORIGINATOR     = 

OBJECT_NAME    = ENVISAT
OBJECT_ID      = 2002-009A
CENTER_NAME    = EARTH
REF_FRAME      = TEME
TIME_SYSTEM    = UTC
MEAN_ELEMENT_THEORY = SGP/SGP4

EPOCH          = 2026-02-05T07:10:35.586336
MEAN_MOTION    = 14.39024552
ECCENTRICITY   = .0001298
INCLINATION    = 98.3675
RA_OF_ASC_NODE = 350.6790
ARG_OF_PERICENTER = 91.3247
MEAN_ANOMALY   = 68.9730

EPHEMERIS_TYPE = 0
CLASSIFICATION_TYPE = U
NORAD_CAT_ID   = 27386
ELEMENT_SET_NO = 999
REV_AT_EPOCH   = 25451
BSTAR          = .8058695E-4
MEAN_MOTION_DOT = .206E-5
MEAN_MOTION_DDOT = 0

