SL-16 R/B               
1 25400U 98043G   26035.89504658  .00000098  00000+0  60084-4 0  9994
2 25400  98.8200 349.0376 0010866 107.6539 252.5828 14.26041654434314
SL-16 R/B               
1 25407U 98045B   26036.29382666 -.00000194  00000+0 -74096-4 0  9998
2 25407  71.0087 249.7020 0005233  68.6719 291.4963 14.16185376422517
ISS (ZARYA)             
1 25544U 98067A   26036.05036301  .00011388  00000+0  21868-3 0  9993
2 25544  51.6315 233.7051 0011125  65.7526 294.4623 15.48402345551271
CZ-4B R/B               
1 25732U 99025C   26036.06596928  .00000066  00000+0  52510-4 0  9994
2 25732  98.6689  81.1107 0038176  79.2514 311.0915 14.18258696383541
OKEAN-O                 
1 25860U 99039A   26036.13895168  .00000892  00000+0  12405-3 0  9992
2 25860  97.9512  96.3497 0001926  89.2996 270.8437 14.80280386429573
SL-16 R/B               
1 25861U 99039B   26036.14959965  .00000771  00000+0  10461-3 0  9996
2 25861  98.0034  95.2827 0014918   8.4597 351.6864 14.81684382432048
DELTA 2 R/B             
1 25876U 99041E   26036.15983502  .00002630  00000+0  46029-3 0  9995
2 25876  51.7645  71.1819 0502433 252.3214 102.2274 14.11702591358433
HELIOS 1B               
1 25977U 99064A   26036.22627077  .00002634  00000+0  29654-3 0  9991
2 25977  98.1728 297.5111 0001903 120.7216 239.4187 14.87561947680432
TERRA                   
1 25994U 99068A   26036.25489681  .00000659  00000+0  14358-3 0  9994
2 25994  97.9661  90.9173 0000984 297.8745 137.2796 14.60978909390348
SL-16 R/B               
1 26070U 00006B   26036.30080670  .00000062  00000+0  55677-4 0  9993
2 26070  71.0027 165.9377 0018452 235.5867 124.3513 14.15820585343972
TITAN 4B R/B            
1 26474U 00047B   26036.22692911  .00005345  00000+0  33753-3 0  9993
2 26474  67.9896 131.7755 0036891  75.4960 285.0278 15.09290425388016
ENVISAT                 
1 27386U 02009A   26036.29902299  .00000206  00000+0  80587-4 0  9995
2 27386  98.3675 350.6790 0001298  91.3247  68.9730 14.39024552254517
